{"type": "FeatureCollection", "features": [{"type": "Feature", "properties": {"norad_id": 25590, "name": "COSMOS 2361", "group": "musson", "lat": 21.69097370963277, "lon": -8.616871119868511, "alt_km": 991.0835929373361, "timestamp": "2025-12-06T16:45:42.991722+00:00", "meta": {"OBJECT_NAME": "COSMOS 2361", "OBJECT_ID": "1998-076A", "EPOCH": "2025-12-06T07:58:05.206080", "MEAN_MOTION": 13.73216426, "ECCENTRICITY": 0.00301041, "INCLINATION": 82.934, "RA_OF_ASC_NODE": 348.8262, "ARG_OF_PERICENTER": 284.2249, "MEAN_ANOMALY": 87.0472, "EPHEMERIS_TYPE": 0, "CLASSIFICATION_TYPE": "U", "NORAD_CAT_ID": 25590, "ELEMENT_SET_NO": 999, "REV_AT_EPOCH": 35023, "BSTAR": 8.9334207e-05, "MEAN_MOTION_DOT": 9.8e-07, "MEAN_MOTION_DDOT": 0}, "tle": {"line1": "1 25590U 98076A   25340.33200470  .00000098  00000+0  89334-4 0  9991", "line2": "2 25590  82.9340 348.8262 0030104 284.2249  87.0472 13.73216426350237"}}, "geometry": {"type": "Point", "coordinates": [-8.616871119868511, 21.69097370963277]}}, {"type": "Feature", "properties": {"norad_id": 26818, "name": "COSMOS 2378", "group": "musson", "lat": 72.49557599559867, "lon": 27.384886975468127, "alt_km": 997.8172376445991, "timestamp": "2025-12-06T16:45:42.991742+00:00", "meta": {"OBJECT_NAME": "COSMOS 2378", "OBJECT_ID": "2001-023A", "EPOCH": "2025-12-06T07:42:57.230208", "MEAN_MOTION": 13.74141201, "ECCENTRICITY": 0.00320569, "INCLINATION": 82.9277, "RA_OF_ASC_NODE": 4.4843, "ARG_OF_PERICENTER": 223.1671, "MEAN_ANOMALY": 147.4729, "EPHEMERIS_TYPE": 0, "CLASSIFICATION_TYPE": "U", "NORAD_CAT_ID": 26818, "ELEMENT_SET_NO": 999, "REV_AT_EPOCH": 22835, "BSTAR": 7.847976e-05, "MEAN_MOTION_DOT": 8.9e-07, "MEAN_MOTION_DDOT": 0}, "tle": {"line1": "1 26818U 01023A   25340.32149572  .00000089  00000+0  78480-4 0  9995", "line2": "2 26818  82.9277   4.4843 0032056 223.1671 147.4729 13.74141201228351"}}, "geometry": {"type": "Point", "coordinates": [27.384886975468127, 72.49557599559867]}}, {"type": "Feature", "properties": {"norad_id": 27436, "name": "COSMOS 2389", "group": "musson", "lat": -77.05063997228427, "lon": 164.019039373838, "alt_km": 1023.6076879088314, "timestamp": "2025-12-06T16:45:42.991756+00:00", "meta": {"OBJECT_NAME": "COSMOS 2389", "OBJECT_ID": "2002-026A", "EPOCH": "2025-12-06T05:04:58.751040", "MEAN_MOTION": 13.75153594, "ECCENTRICITY": 0.00477472, "INCLINATION": 82.9496, "RA_OF_ASC_NODE": 311.8178, "ARG_OF_PERICENTER": 78.4851, "MEAN_ANOMALY": 292.9276, "EPHEMERIS_TYPE": 0, "CLASSIFICATION_TYPE": "U", "NORAD_CAT_ID": 27436, "ELEMENT_SET_NO": 999, "REV_AT_EPOCH": 18059, "BSTAR": 7.8333976e-05, "MEAN_MOTION_DOT": 9.1e-07, "MEAN_MOTION_DDOT": 0}, "tle": {"line1": "1 27436U 02026A   25340.21179110  .00000091  00000+0  78334-4 0  9996", "line2": "2 27436  82.9496 311.8178 0047747  78.4851 292.9276 13.75153594180596"}}, "geometry": {"type": "Point", "coordinates": [164.019039373838, -77.05063997228427]}}, {"type": "Feature", "properties": {"norad_id": 27818, "name": "COSMOS 2398", "group": "musson", "lat": -82.63039097740914, "lon": -155.9991519565605, "alt_km": 1017.7017223019757, "timestamp": "2025-12-06T16:45:42.991769+00:00", "meta": {"OBJECT_NAME": "COSMOS 2398", "OBJECT_ID": "2003-023A", "EPOCH": "2025-12-06T05:44:14.096256", "MEAN_MOTION": 13.7238472, "ECCENTRICITY": 0.00323342, "INCLINATION": 82.9478, "RA_OF_ASC_NODE": 277.4888, "ARG_OF_PERICENTER": 129.2408, "MEAN_ANOMALY": 34.4354, "EPHEMERIS_TYPE": 0, "CLASSIFICATION_TYPE": "U", "NORAD_CAT_ID": 27818, "ELEMENT_SET_NO": 999, "REV_AT_EPOCH": 12727, "BSTAR": 7.9250575e-05, "MEAN_MOTION_DOT": 8.8e-07, "MEAN_MOTION_DDOT": 0}, "tle": {"line1": "1 27818U 03023A   25340.23905204  .00000088  00000+0  79251-4 0  9996", "line2": "2 27818  82.9478 277.4888 0032334 129.2408  34.4354 13.72384720127270"}}, "geometry": {"type": "Point", "coordinates": [-155.9991519565605, -82.63039097740914]}}, {"type": "Feature", "properties": {"norad_id": 28380, "name": "COSMOS 2407", "group": "musson", "lat": 21.708718084473414, "lon": -139.81541069736917, "alt_km": 957.1799375952914, "timestamp": "2025-12-06T16:45:42.991780+00:00", "meta": {"OBJECT_NAME": "COSMOS 2407", "OBJECT_ID": "2004-028A", "EPOCH": "2025-12-05T23:15:47.898432", "MEAN_MOTION": 13.76312462, "ECCENTRICITY": 0.00404904, "INCLINATION": 82.9614, "RA_OF_ASC_NODE": 217.9051, "ARG_OF_PERICENTER": 73.2029, "MEAN_ANOMALY": 298.6338, "EPHEMERIS_TYPE": 0, "CLASSIFICATION_TYPE": "U", "NORAD_CAT_ID": 28380, "ELEMENT_SET_NO": 999, "REV_AT_EPOCH": 7330, "BSTAR": 0.00010127991, "MEAN_MOTION_DOT": 1.15e-06, "MEAN_MOTION_DDOT": 0}, "tle": {"line1": "1 28380U 04028A   25339.96930438  .00000115  00000+0  10128-3 0  9990", "line2": "2 28380  82.9614 217.9051 0040490  73.2029 298.6338 13.76312462 73305"}}, "geometry": {"type": "Point", "coordinates": [-139.81541069736917, 21.708718084473414]}}, {"type": "Feature", "properties": {"norad_id": 28521, "name": "COSMOS 2414", "group": "musson", "lat": 33.29672940087519, "lon": -166.1099875916421, "alt_km": 949.9264440679399, "timestamp": "2025-12-06T16:45:42.991791+00:00", "meta": {"OBJECT_NAME": "COSMOS 2414", "OBJECT_ID": "2005-002A", "EPOCH": "2025-12-06T01:01:39.540000", "MEAN_MOTION": 13.87901663, "ECCENTRICITY": 0.00404897, "INCLINATION": 82.9498, "RA_OF_ASC_NODE": 189.7237, "ARG_OF_PERICENTER": 158.4993, "MEAN_ANOMALY": 201.7883, "EPHEMERIS_TYPE": 0, "CLASSIFICATION_TYPE": "U", "NORAD_CAT_ID": 28521, "ELEMENT_SET_NO": 999, "REV_AT_EPOCH": 5702, "BSTAR": 9.5472377e-05, "MEAN_MOTION_DOT": 1.3e-06, "MEAN_MOTION_DDOT": 0}, "tle": {"line1": "1 28521U 05002A   25340.04281875  .00000130  00000+0  95472-4 0  9998", "line2": "2 28521  82.9498 189.7237 0040489 158.4993 201.7883 13.87901663 57028"}}, "geometry": {"type": "Point", "coordinates": [-166.1099875916421, 33.29672940087519]}}, {"type": "Feature", "properties": {"norad_id": 32052, "name": "COSMOS 2429", "group": "musson", "lat": 81.56211306339526, "lon": 43.920066027807714, "alt_km": 948.7663513779007, "timestamp": "2025-12-06T16:45:42.991801+00:00", "meta": {"OBJECT_NAME": "COSMOS 2429", "OBJECT_ID": "2007-038A", "EPOCH": "2025-12-06T07:37:13.123200", "MEAN_MOTION": 13.75148429, "ECCENTRICITY": 0.00395213, "INCLINATION": 82.9803, "RA_OF_ASC_NODE": 348.0437, "ARG_OF_PERICENTER": 55.3462, "MEAN_ANOMALY": 305.141, "EPHEMERIS_TYPE": 0, "CLASSIFICATION_TYPE": "U", "NORAD_CAT_ID": 32052, "ELEMENT_SET_NO": 999, "REV_AT_EPOCH": 91514, "BSTAR": 7.1111268e-05, "MEAN_MOTION_DOT": 8.4e-07, "MEAN_MOTION_DDOT": 0}, "tle": {"line1": "1 32052U 07038A   25340.31751300  .00000084  00000+0  71111-4 0  9990", "line2": "2 32052  82.9803 348.0437 0039521  55.3462 305.1410 13.75148429915146"}}, "geometry": {"type": "Point", "coordinates": [43.920066027807714, 81.56211306339526]}}, {"type": "Feature", "properties": {"norad_id": 35635, "name": "COSMOS 2454", "group": "musson", "lat": 39.64877117021103, "lon": 179.1056538429785, "alt_km": 916.0937234245775, "timestamp": "2025-12-06T16:45:42.991812+00:00", "meta": {"OBJECT_NAME": "COSMOS 2454", "OBJECT_ID": "2009-039A", "EPOCH": "2025-12-06T00:01:46.066368", "MEAN_MOTION": 13.89927461, "ECCENTRICITY": 0.00205008, "INCLINATION": 82.9557, "RA_OF_ASC_NODE": 173.753, "ARG_OF_PERICENTER": 91.7639, "MEAN_ANOMALY": 61.965, "EPHEMERIS_TYPE": 0, "CLASSIFICATION_TYPE": "U", "NORAD_CAT_ID": 35635, "ELEMENT_SET_NO": 999, "REV_AT_EPOCH": 83056, "BSTAR": 9.042393e-05, "MEAN_MOTION_DOT": 1.27e-06, "MEAN_MOTION_DDOT": 0}, "tle": {"line1": "1 35635U 09039A   25340.00122762  .00000127  00000+0  90424-4 0  9999", "line2": "2 35635  82.9557 173.7530 0020500  91.7639  61.9650 13.89927461830567"}}, "geometry": {"type": "Point", "coordinates": [179.1056538429785, 39.64877117021103]}}, {"type": "Feature", "properties": {"norad_id": 36519, "name": "COSMOS 2463", "group": "musson", "lat": 61.544035246785725, "lon": -162.023922337237, "alt_km": 1013.2228209518926, "timestamp": "2025-12-06T16:45:42.991822+00:00", "meta": {"OBJECT_NAME": "COSMOS 2463", "OBJECT_ID": "2010-017A", "EPOCH": "2025-12-06T03:58:20.108064", "MEAN_MOTION": 13.71648238, "ECCENTRICITY": 0.00349855, "INCLINATION": 82.9618, "RA_OF_ASC_NODE": 31.5435, "ARG_OF_PERICENTER": 306.9363, "MEAN_ANOMALY": 60.6371, "EPHEMERIS_TYPE": 0, "CLASSIFICATION_TYPE": "U", "NORAD_CAT_ID": 36519, "ELEMENT_SET_NO": 999, "REV_AT_EPOCH": 78147, "BSTAR": 8.4170821e-05, "MEAN_MOTION_DOT": 9.1e-07, "MEAN_MOTION_DDOT": 0}, "tle": {"line1": "1 36519U 10017A   25340.16551051  .00000091  00000+0  84171-4 0  9995", "line2": "2 36519  82.9618  31.5435 0034985 306.9363  60.6371 13.71648238781473"}}, "geometry": {"type": "Point", "coordinates": [-162.023922337237, 61.544035246785725]}}]}